SL-14 R/B               
1 16792U 86046B   25344.49166715  .00000824  00000+0  92223-4 0  9991
2 16792  82.4810 164.4374 0023603 159.4931 200.7238 14.85480822113161
SL-14 R/B               
1 16882U 86055B   25344.37624160  .00000728  00000+0  81381-4 0  9997
2 16882  82.5206 210.5936 0017444 267.9652 265.4552 14.85527471106104
AJISAI (EGS)            
1 16908U 86061A   25344.66229377 -.00000094  00000+0  25889-4 0  9994
2 16908  50.0114   7.1053 0011291  60.7135  41.0561 12.44514243456911
COSMOS 1812             
1 17295U 87003A   25344.31639172  .00125418  00000+0  84018-3 0  9996
2 17295  82.4871 294.6387 0007303  91.0031 269.2070 15.74840987130274
SL-14 R/B               
1 17567U 87024B   25344.49007387  .00000770  00000+0  85065-4 0  9994
2 17567  82.5276 176.5679 0017878 191.7576 168.3225 14.86020137 74882
COSMOS 1833             
1 17589U 87027A   25344.52325839  .00000124  00000+0  92212-4 0  9995
2 17589  70.9135 153.4368 0022433 334.8295  25.1731 14.13020620997716
SL-16 R/B               
1 17590U 87027B   25344.47314498 -.00000070  00000+0 -10772-4 0  9993
2 17590  71.0027 104.4940 0007463 261.8885  98.1392 14.17152118  2703
SL-14 R/B               
1 17912U 87038B   25344.50658840  .00000700  00000+0  78506-4 0  9996
2 17912  82.5018  20.8044 0020880  98.9391 261.4190 14.85258202 65990
COSMOS 1844             
1 17973U 87041A   25344.65265836 -.00000107  00000+0 -30360-4 0  9991
2 17973  70.8980 221.9735 0030132 160.3953 199.8335 14.14526115990990
SL-14 R/B               
1 18153U 87055B   25344.49885443  .00000827  00000+0  92719-4 0  9994
2 18153  82.5002  73.1002 0019521 311.2065  48.7467 14.85517771 56694
COSMOS 1867             
1 18187U 87060A   25344.29740647  .00000013  00000+0  42640-4 0  9996
2 18187  65.0094 197.0423 0013643 270.8522  89.1000 14.31485568  7145
SL-14 R/B               
1 18749U 88001B   25344.48829198  .00000863  00000+0  97167-4 0  9993
2 18749  82.5132 279.2648 0018258 168.3820 191.7822 14.85420303 28787
