CCSDS_OMM_VERS = 2.0
CREATION_DATE  = 
ORIGINATOR     = 

OBJECT_NAME    = SL-14 R/B
OBJECT_ID      = 1986-046B
CENTER_NAME    = EARTH
REF_FRAME      = TEME
TIME_SYSTEM    = UTC
MEAN_ELEMENT_THEORY = SGP/SGP4

EPOCH          = 2025-12-10T11:48:00.041760
MEAN_MOTION    = 14.85480822
ECCENTRICITY   = .00236032
INCLINATION    = 82.4810
RA_OF_ASC_NODE = 164.4374
ARG_OF_PERICENTER = 159.4931
MEAN_ANOMALY   = 200.7238

EPHEMERIS_TYPE = 0
CLASSIFICATION_TYPE = U
NORAD_CAT_ID   = 16792
ELEMENT_SET_NO = 999
REV_AT_EPOCH   = 11316
BSTAR          = .92223369E-4
MEAN_MOTION_DOT = .824E-5
MEAN_MOTION_DDOT = 0

CCSDS_OMM_VERS = 2.0
CREATION_DATE  = 
ORIGINATOR     = 

OBJECT_NAME    = SL-14 R/B
OBJECT_ID      = 1986-055B
CENTER_NAME    = EARTH
REF_FRAME      = TEME
TIME_SYSTEM    = UTC
MEAN_ELEMENT_THEORY = SGP/SGP4

EPOCH          = 2025-12-10T09:01:47.274240
MEAN_MOTION    = 14.85527471
ECCENTRICITY   = .00174442
INCLINATION    = 82.5206
RA_OF_ASC_NODE = 210.5936
ARG_OF_PERICENTER = 267.9652
MEAN_ANOMALY   = 265.4552

EPHEMERIS_TYPE = 0
CLASSIFICATION_TYPE = U
NORAD_CAT_ID   = 16882
ELEMENT_SET_NO = 999
REV_AT_EPOCH   = 10610
BSTAR          = .81380504E-4
MEAN_MOTION_DOT = .728E-5
MEAN_MOTION_DDOT = 0

CCSDS_OMM_VERS = 2.0
CREATION_DATE  = 
ORIGINATOR     = 

OBJECT_NAME    = AJISAI (EGS)
OBJECT_ID      = 1986-061A
CENTER_NAME    = EARTH
REF_FRAME      = TEME
TIME_SYSTEM    = UTC
MEAN_ELEMENT_THEORY = SGP/SGP4

EPOCH          = 2025-12-10T15:53:42.181728
MEAN_MOTION    = 12.44514243
ECCENTRICITY   = .00112916
INCLINATION    = 50.0114
RA_OF_ASC_NODE = 7.1053
ARG_OF_PERICENTER = 60.7135
MEAN_ANOMALY   = 41.0561

EPHEMERIS_TYPE = 0
CLASSIFICATION_TYPE = U
NORAD_CAT_ID   = 16908
ELEMENT_SET_NO = 999
REV_AT_EPOCH   = 45691
BSTAR          = .25888894E-4
MEAN_MOTION_DOT = -.94E-6
MEAN_MOTION_DDOT = 0

CCSDS_OMM_VERS = 2.0
CREATION_DATE  = 
ORIGINATOR     = 

OBJECT_NAME    = COSMOS 1812
OBJECT_ID      = 1987-003A
CENTER_NAME    = EARTH
REF_FRAME      = TEME
TIME_SYSTEM    = UTC
MEAN_ELEMENT_THEORY = SGP/SGP4

EPOCH          = 2025-12-10T07:35:36.244608
MEAN_MOTION    = 15.74840987
ECCENTRICITY   = .0007303
INCLINATION    = 82.4871
RA_OF_ASC_NODE = 294.6387
ARG_OF_PERICENTER = 91.0031
MEAN_ANOMALY   = 269.2070

EPHEMERIS_TYPE = 0
CLASSIFICATION_TYPE = U
NORAD_CAT_ID   = 17295
ELEMENT_SET_NO = 999
REV_AT_EPOCH   = 13027
BSTAR          = .84018E-3
MEAN_MOTION_DOT = .125418E-2
MEAN_MOTION_DDOT = 0

CCSDS_OMM_VERS = 2.0
CREATION_DATE  = 
ORIGINATOR     = 

OBJECT_NAME    = SL-14 R/B
OBJECT_ID      = 1987-024B
CENTER_NAME    = EARTH
REF_FRAME      = TEME
TIME_SYSTEM    = UTC
MEAN_ELEMENT_THEORY = SGP/SGP4

EPOCH          = 2025-12-10T11:45:42.382368
MEAN_MOTION    = 14.86020137
ECCENTRICITY   = .00178783
INCLINATION    = 82.5276
RA_OF_ASC_NODE = 176.5679
ARG_OF_PERICENTER = 191.7576
MEAN_ANOMALY   = 168.3225

EPHEMERIS_TYPE = 0
CLASSIFICATION_TYPE = U
NORAD_CAT_ID   = 17567
ELEMENT_SET_NO = 999
REV_AT_EPOCH   = 7488
BSTAR          = .85064931E-4
MEAN_MOTION_DOT = .77E-5
MEAN_MOTION_DDOT = 0

CCSDS_OMM_VERS = 2.0
CREATION_DATE  = 
ORIGINATOR     = 

OBJECT_NAME    = COSMOS 1833
OBJECT_ID      = 1987-027A
CENTER_NAME    = EARTH
REF_FRAME      = TEME
TIME_SYSTEM    = UTC
MEAN_ELEMENT_THEORY = SGP/SGP4

EPOCH          = 2025-12-10T12:33:29.524896
MEAN_MOTION    = 14.13020620
ECCENTRICITY   = .00224338
INCLINATION    = 70.9135
RA_OF_ASC_NODE = 153.4368
ARG_OF_PERICENTER = 334.8295
MEAN_ANOMALY   = 25.1731

EPHEMERIS_TYPE = 0
CLASSIFICATION_TYPE = U
NORAD_CAT_ID   = 17589
ELEMENT_SET_NO = 999
REV_AT_EPOCH   = 99771
BSTAR          = .92211918E-4
MEAN_MOTION_DOT = .124E-5
MEAN_MOTION_DDOT = 0

CCSDS_OMM_VERS = 2.0
CREATION_DATE  = 
ORIGINATOR     = 

OBJECT_NAME    = SL-16 R/B
OBJECT_ID      = 1987-027B
CENTER_NAME    = EARTH
REF_FRAME      = TEME
TIME_SYSTEM    = UTC
MEAN_ELEMENT_THEORY = SGP/SGP4

EPOCH          = 2025-12-10T11:21:19.726272
MEAN_MOTION    = 14.17152118
ECCENTRICITY   = .00074635
INCLINATION    = 71.0027
RA_OF_ASC_NODE = 104.4940
ARG_OF_PERICENTER = 261.8885
MEAN_ANOMALY   = 98.1392

EPHEMERIS_TYPE = 0
CLASSIFICATION_TYPE = U
NORAD_CAT_ID   = 17590
ELEMENT_SET_NO = 999
REV_AT_EPOCH   = 270
BSTAR          = -.10772371E-4
MEAN_MOTION_DOT = -.7E-6
MEAN_MOTION_DDOT = 0

CCSDS_OMM_VERS = 2.0
CREATION_DATE  = 
ORIGINATOR     = 

OBJECT_NAME    = SL-14 R/B
OBJECT_ID      = 1987-038B
CENTER_NAME    = EARTH
REF_FRAME      = TEME
TIME_SYSTEM    = UTC
MEAN_ELEMENT_THEORY = SGP/SGP4

EPOCH          = 2025-12-10T12:09:29.237760
MEAN_MOTION    = 14.85258202
ECCENTRICITY   = .00208806
INCLINATION    = 82.5018
RA_OF_ASC_NODE = 20.8044
ARG_OF_PERICENTER = 98.9391
MEAN_ANOMALY   = 261.4190

EPHEMERIS_TYPE = 0
CLASSIFICATION_TYPE = U
NORAD_CAT_ID   = 17912
ELEMENT_SET_NO = 999
REV_AT_EPOCH   = 6599
BSTAR          = .78505788E-4
MEAN_MOTION_DOT = .7E-5
MEAN_MOTION_DDOT = 0

CCSDS_OMM_VERS = 2.0
CREATION_DATE  = 
ORIGINATOR     = 

OBJECT_NAME    = COSMOS 1844
OBJECT_ID      = 1987-041A
CENTER_NAME    = EARTH
REF_FRAME      = TEME
TIME_SYSTEM    = UTC
MEAN_ELEMENT_THEORY = SGP/SGP4

EPOCH          = 2025-12-10T15:39:49.682304
MEAN_MOTION    = 14.14526115
ECCENTRICITY   = .00301326
INCLINATION    = 70.8980
RA_OF_ASC_NODE = 221.9735
ARG_OF_PERICENTER = 160.3953
MEAN_ANOMALY   = 199.8335

EPHEMERIS_TYPE = 0
CLASSIFICATION_TYPE = U
NORAD_CAT_ID   = 17973
ELEMENT_SET_NO = 999
REV_AT_EPOCH   = 99099
BSTAR          = -.30360073E-4
MEAN_MOTION_DOT = -.107E-5
MEAN_MOTION_DDOT = 0

CCSDS_OMM_VERS = 2.0
CREATION_DATE  = 
ORIGINATOR     = 

OBJECT_NAME    = SL-14 R/B
OBJECT_ID      = 1987-055B
CENTER_NAME    = EARTH
REF_FRAME      = TEME
TIME_SYSTEM    = UTC
MEAN_ELEMENT_THEORY = SGP/SGP4

EPOCH          = 2025-12-10T11:58:21.022752
MEAN_MOTION    = 14.85517771
ECCENTRICITY   = .00195215
INCLINATION    = 82.5002
RA_OF_ASC_NODE = 73.1002
ARG_OF_PERICENTER = 311.2065
MEAN_ANOMALY   = 48.7467

EPHEMERIS_TYPE = 0
CLASSIFICATION_TYPE = U
NORAD_CAT_ID   = 18153
ELEMENT_SET_NO = 999
REV_AT_EPOCH   = 5669
BSTAR          = .92719159E-4
MEAN_MOTION_DOT = .827E-5
MEAN_MOTION_DDOT = 0

CCSDS_OMM_VERS = 2.0
CREATION_DATE  = 
ORIGINATOR     = 

OBJECT_NAME    = COSMOS 1867
OBJECT_ID      = 1987-060A
CENTER_NAME    = EARTH
REF_FRAME      = TEME
TIME_SYSTEM    = UTC
MEAN_ELEMENT_THEORY = SGP/SGP4

EPOCH          = 2025-12-10T07:08:15.919008
MEAN_MOTION    = 14.31485568
ECCENTRICITY   = .0013643
INCLINATION    = 65.0094
RA_OF_ASC_NODE = 197.0423
ARG_OF_PERICENTER = 270.8522
MEAN_ANOMALY   = 89.1000

EPHEMERIS_TYPE = 0
CLASSIFICATION_TYPE = U
NORAD_CAT_ID   = 18187
ELEMENT_SET_NO = 999
REV_AT_EPOCH   = 714
BSTAR          = .4264E-4
MEAN_MOTION_DOT = .13E-6
MEAN_MOTION_DDOT = 0

CCSDS_OMM_VERS = 2.0
CREATION_DATE  = 
ORIGINATOR     = 

OBJECT_NAME    = SL-14 R/B
OBJECT_ID      = 1988-001B
CENTER_NAME    = EARTH
REF_FRAME      = TEME
TIME_SYSTEM    = UTC
MEAN_ELEMENT_THEORY = SGP/SGP4

EPOCH          = 2025-12-10T11:43:08.427072
MEAN_MOTION    = 14.85420303
ECCENTRICITY   = .0018258
INCLINATION    = 82.5132
RA_OF_ASC_NODE = 279.2648
ARG_OF_PERICENTER = 168.3820
MEAN_ANOMALY   = 191.7822

EPHEMERIS_TYPE = 0
CLASSIFICATION_TYPE = U
NORAD_CAT_ID   = 18749
ELEMENT_SET_NO = 999
REV_AT_EPOCH   = 2878
BSTAR          = .97167217E-4
MEAN_MOTION_DOT = .863E-5
MEAN_MOTION_DDOT = 0

